start=new Date('2021-11-02T00:00:00.000Z').valueOf();
sats=[{"OBJECT_ID":"2020-070M","MEAN_ANOMALY":"266.5185","PERIAPSIS":"546.277","REF_FRAME":"TEME","SEMIMAJOR_AXIS":"6925.378","TLE_LINE1":"1 46543U 20070M   21305.82644819 -.00000467  00000-0 -12483-4 0  9995","TIME_SYSTEM":"UTC","CENTER_NAME":"EARTH","LAUNCH_DATE":"2020-10-06","EPOCH":"2021-11-01T19:50:05.123616","REV_AT_EPOCH":"6002","PERIOD":"95.593","TLE_LINE2":"2 46543  53.0542 109.2999 0001395  93.5964 266.5185 15.06390294 60026","RA_OF_ASC_NODE":"109.2999","OBJECT_NAME":"STARLINK-1693","OBJECT_TYPE":"PAYLOAD","FILE":"3196819","NORAD_CAT_ID":"46543","MEAN_MOTION":"15.06390294","SITE":"AFETR","CLASSIFICATION_TYPE":"U","INCLINATION":"53.0542","ELEMENT_SET_NO":"999","MEAN_MOTION_DDOT":"0.0000000000000","BSTAR":"-0.00001248300000","RCS_SIZE":"LARGE","ECCENTRICITY":"0.00013950","MEAN_MOTION_DOT":"-0.00000467","EPHEMERIS_TYPE":"0","APOAPSIS":"548.209","GP_ID":"188695460","COUNTRY_CODE":"US","MEAN_ELEMENT_THEORY":"SGP4","DECAY_DATE":null,"ARG_OF_PERICENTER":"93.5964"},{"RA_OF_ASC_NODE":"94.0202","FILE":"3196819","OBJECT_NAME":"STARLINK-1694","OBJECT_TYPE":"PAYLOAD","MEAN_MOTION":"15.06402983","NORAD_CAT_ID":"46544","INCLINATION":"53.0551","SITE":"AFETR","CLASSIFICATION_TYPE":"U","TIME_SYSTEM":"UTC","TLE_LINE1":"1 46544U 20070N   21305.88863597  .00002411  00000-0  18066-3 0  9999","SEMIMAJOR_AXIS":"6925.339","CENTER_NAME":"EARTH","MEAN_ANOMALY":"266.8091","OBJECT_ID":"2020-070N","PERIAPSIS":"546.322","REF_FRAME":"TEME","LAUNCH_DATE":"2020-10-06","EPOCH":"2021-11-01T21:19:38.147808","TLE_LINE2":"2 46544  53.0551  94.0202 0001274  93.3044 266.8091 15.06402983 60240","PERIOD":"95.592","REV_AT_EPOCH":"6024","EPHEMERIS_TYPE":"0","GP_ID":"188693708","APOAPSIS":"548.087","COUNTRY_CODE":"US","MEAN_ELEMENT_THEORY":"SGP4","DECAY_DATE":null,"ARG_OF_PERICENTER":"93.3044","ELEMENT_SET_NO":"999","MEAN_MOTION_DDOT":"0.0000000000000","BSTAR":"0.00018066000000","RCS_SIZE":"LARGE","MEAN_MOTION_DOT":"0.00002411","ECCENTRICITY":"0.00012740"},{"RA_OF_ASC_NODE":"109.1453","FILE":"3196819","OBJECT_NAME":"STARLINK-1696","OBJECT_TYPE":"PAYLOAD","MEAN_MOTION":"15.06397573","NORAD_CAT_ID":"46545","INCLINATION":"53.0542","SITE":"AFETR","CLASSIFICATION_TYPE":"U","CENTER_NAME":"EARTH","TLE_LINE1":"1 46545U 20070P   21305.86330606 -.00000452  00000-0 -11463-4 0  9998","SEMIMAJOR_AXIS":"6925.356","TIME_SYSTEM":"UTC","OBJECT_ID":"2020-070P","MEAN_ANOMALY":"281.3266","PERIAPSIS":"546.105","REF_FRAME":"TEME","LAUNCH_DATE":"2020-10-06","EPOCH":"2021-11-01T20:43:09.643584","TLE_LINE2":"2 46545  53.0542 109.1453 0001612  78.7904 281.3266 15.06397573 60025","REV_AT_EPOCH":"6002","PERIOD":"95.592","EPHEMERIS_TYPE":"0","GP_ID":"188693958","APOAPSIS":"548.337","COUNTRY_CODE":"US","DECAY_DATE":null,"MEAN_ELEMENT_THEORY":"SGP4","ARG_OF_PERICENTER":"78.7904","ELEMENT_SET_NO":"999","MEAN_MOTION_DDOT":"0.0000000000000","BSTAR":"-0.00001146300000","RCS_SIZE":"LARGE","MEAN_MOTION_DOT":"-0.00000452","ECCENTRICITY":"0.00016120"},{"OBJECT_ID":"2020-070Q","MEAN_ANOMALY":"275.8106","REF_FRAME":"TEME","PERIAPSIS":"545.970","CENTER_NAME":"EARTH","TLE_LINE1":"1 46546U 20070Q   21305.84856296 -.00000389  00000-0 -72074-5 0  9990","SEMIMAJOR_AXIS":"6925.372","TIME_SYSTEM":"UTC","LAUNCH_DATE":"2020-10-06","EPOCH":"2021-11-01T20:21:55.839744","REV_AT_EPOCH":"5973","PERIOD":"95.593","TLE_LINE2":"2 46546  53.0540 109.1997 0001830  84.3091 275.8106 15.06392391 59739","RA_OF_ASC_NODE":"109.1997","OBJECT_NAME":"STARLINK-1697","OBJECT_TYPE":"PAYLOAD","FILE":"3196755","NORAD_CAT_ID":"46546","MEAN_MOTION":"15.06392391","SITE":"AFETR","CLASSIFICATION_TYPE":"U","INCLINATION":"53.0540","ELEMENT_SET_NO":"999","MEAN_MOTION_DDOT":"0.0000000000000","BSTAR":"-0.00000720740000","RCS_SIZE":"LARGE","ECCENTRICITY":"0.00018300","MEAN_MOTION_DOT":"-0.00000389","EPHEMERIS_TYPE":"0","APOAPSIS":"548.504","GP_ID":"188671527","COUNTRY_CODE":"US","MEAN_ELEMENT_THEORY":"SGP4","DECAY_DATE":null,"ARG_OF_PERICENTER":"84.3091"},{"RA_OF_ASC_NODE":"109.6704","FILE":"3196819","OBJECT_TYPE":"PAYLOAD","OBJECT_NAME":"STARLINK-1698","MEAN_MOTION":"15.06398762","NORAD_CAT_ID":"46547","INCLINATION":"53.0538","CLASSIFICATION_TYPE":"U","SITE":"AFETR","TLE_LINE1":"1 46547U 20070R   21305.74534870  .00001160  00000-0  96764-4 0  9998","CENTER_NAME":"EARTH","SEMIMAJOR_AXIS":"6925.352","TIME_SYSTEM":"UTC","REF_FRAME":"TEME","PERIAPSIS":"546.091","OBJECT_ID":"2020-070R","MEAN_ANOMALY":"271.3241","LAUNCH_DATE":"2020-10-06","EPOCH":"2021-11-01T17:53:18.127680","TLE_LINE2":"2 46547  53.0538 109.6704 0001626  88.7935 271.3241 15.06398762 60018","PERIOD":"95.592","REV_AT_EPOCH":"6001","EPHEMERIS_TYPE":"0","GP_ID":"188694960","APOAPSIS":"548.343","COUNTRY_CODE":"US","ARG_OF_PERICENTER":"88.7935","MEAN_ELEMENT_THEORY":"SGP4","DECAY_DATE":null,"ELEMENT_SET_NO":"999","MEAN_MOTION_DDOT":"0.0000000000000","RCS_SIZE":"LARGE","BSTAR":"0.00009676400000","MEAN_MOTION_DOT":"0.00001160","ECCENTRICITY":"0.00016260"},{"OBJECT_ID":"2020-070S","MEAN_ANOMALY":"277.4858","REF_FRAME":"TEME","PERIAPSIS":"546.109","SEMIMAJOR_AXIS":"6925.347","TLE_LINE1":"1 46548U 20070S   21305.75640538  .00002022  00000-0  15459-3 0  9998","TIME_SYSTEM":"UTC","CENTER_NAME":"EARTH","LAUNCH_DATE":"2020-10-06","EPOCH":"2021-11-01T18:09:13.424832","PERIOD":"95.592","REV_AT_EPOCH":"6001","TLE_LINE2":"2 46548  53.0557 109.6304 0001592  82.6312 277.4858 15.06400586 60019","RA_OF_ASC_NODE":"109.6304","OBJECT_NAME":"STARLINK-1699","OBJECT_TYPE":"PAYLOAD","FILE":"3196819","NORAD_CAT_ID":"46548","MEAN_MOTION":"15.06400586","SITE":"AFETR","CLASSIFICATION_TYPE":"U","INCLINATION":"53.0557","ELEMENT_SET_NO":"999","MEAN_MOTION_DDOT":"0.0000000000000","BSTAR":"0.00015459000000","RCS_SIZE":"LARGE","ECCENTRICITY":"0.00015920","MEAN_MOTION_DOT":"0.00002022","EPHEMERIS_TYPE":"0","APOAPSIS":"548.314","GP_ID":"188694209","COUNTRY_CODE":"US","MEAN_ELEMENT_THEORY":"SGP4","DECAY_DATE":null,"ARG_OF_PERICENTER":"82.6312"},{"MEAN_ELEMENT_THEORY":"SGP4","DECAY_DATE":null,"ARG_OF_PERICENTER":"84.0493","COUNTRY_CODE":"US","GP_ID":"188694459","APOAPSIS":"548.343","EPHEMERIS_TYPE":"0","MEAN_MOTION_DOT":"0.00003755","ECCENTRICITY":"0.00016720","BSTAR":"0.00027080000000","RCS_SIZE":"LARGE","MEAN_MOTION_DDOT":"0.0000000000000","ELEMENT_SET_NO":"999","INCLINATION":"53.0515","SITE":"AFETR","CLASSIFICATION_TYPE":"U","MEAN_MOTION":"15.06409367","NORAD_CAT_ID":"46549","FILE":"3196819","OBJECT_NAME":"STARLINK-1700","OBJECT_TYPE":"PAYLOAD","RA_OF_ASC_NODE":"109.1911","TLE_LINE2":"2 46549  53.0515 109.1911 0001672  84.0493 276.0687 15.06409367 60020","REV_AT_EPOCH":"6002","PERIOD":"95.592","EPOCH":"2021-11-01T20:25:52.124736","LAUNCH_DATE":"2020-10-06","CENTER_NAME":"EARTH","TLE_LINE1":"1 46549U 20070T   21305.85129774  .00003755  00000-0  27080-3 0  9991","SEMIMAJOR_AXIS":"6925.320","TIME_SYSTEM":"UTC","OBJECT_ID":"2020-070T","MEAN_ANOMALY":"276.0687","REF_FRAME":"TEME","PERIAPSIS":"546.027"},{"TLE_LINE2":"2 46550  53.0545 109.2546 0001801  88.1719 271.9477 15.06391603 60046","PERIOD":"95.593","REV_AT_EPOCH":"6004","EPOCH":"2021-11-01T20:06:00.738720","LAUNCH_DATE":"2020-10-06","SEMIMAJOR_AXIS":"6925.374","TLE_LINE1":"1 46550U 20070U   21305.83750855 -.00000123  00000-0  10678-4 0  9994","TIME_SYSTEM":"UTC","CENTER_NAME":"EARTH","PERIAPSIS":"545.992","REF_FRAME":"TEME","OBJECT_ID":"2020-070U","MEAN_ANOMALY":"271.9477","INCLINATION":"53.0545","CLASSIFICATION_TYPE":"U","SITE":"AFETR","MEAN_MOTION":"15.06391603","NORAD_CAT_ID":"46550","FILE":"3196755","OBJECT_TYPE":"PAYLOAD","OBJECT_NAME":"STARLINK-1701","RA_OF_ASC_NODE":"109.2546","MEAN_MOTION_DOT":"-0.00000123","ECCENTRICITY":"0.00018010","RCS_SIZE":"LARGE","BSTAR":"0.00001067800000","MEAN_MOTION_DDOT":"0.0000000000000","ELEMENT_SET_NO":"999","ARG_OF_PERICENTER":"88.1719","DECAY_DATE":null,"MEAN_ELEMENT_THEORY":"SGP4","COUNTRY_CODE":"US","GP_ID":"188672022","APOAPSIS":"548.487","EPHEMERIS_TYPE":"0"},{"GP_ID":"188695461","APOAPSIS":"548.292","EPHEMERIS_TYPE":"0","DECAY_DATE":null,"MEAN_ELEMENT_THEORY":"SGP4","ARG_OF_PERICENTER":"88.3998","COUNTRY_CODE":"US","MEAN_MOTION_DDOT":"0.0000000000000","ELEMENT_SET_NO":"999","MEAN_MOTION_DOT":"0.00000040","ECCENTRICITY":"0.00015100","BSTAR":"0.00002156400000","RCS_SIZE":"LARGE","FILE":"3196819","OBJECT_NAME":"STARLINK-1649","OBJECT_TYPE":"PAYLOAD","RA_OF_ASC_NODE":"94.1417","INCLINATION":"53.0537","SITE":"AFETR","CLASSIFICATION_TYPE":"U","MEAN_MOTION":"15.06389282","NORAD_CAT_ID":"46552","LAUNCH_DATE":"2020-10-06","SEMIMAJOR_AXIS":"6925.381","TLE_LINE1":"1 46552U 20070W   21305.86285707  .00000040  00000-0  21564-4 0  9991","CENTER_NAME":"EARTH","TIME_SYSTEM":"UTC","OBJECT_ID":"2020-070W","MEAN_ANOMALY":"271.7164","PERIAPSIS":"546.201","REF_FRAME":"TEME","TLE_LINE2":"2 46552  53.0537  94.1417 0001510  88.3998 271.7164 15.06389282 60249","PERIOD":"95.593","REV_AT_EPOCH":"6024","EPOCH":"2021-11-01T20:42:30.850848"},{"FILE":"3196740","OBJECT_TYPE":"PAYLOAD","OBJECT_NAME":"STARLINK-1664","RA_OF_ASC_NODE":"80.8062","INCLINATION":"53.0544","CLASSIFICATION_TYPE":"U","SITE":"AFETR","MEAN_MOTION":"15.06403792","NORAD_CAT_ID":"46553","LAUNCH_DATE":"2020-10-06","CENTER_NAME":"EARTH","TLE_LINE1":"1 46553U 20070X   21305.49283735  .00001145  00000-0  95752-4 0  9997","SEMIMAJOR_AXIS":"6925.337","TIME_SYSTEM":"UTC","REF_FRAME":"TEME","PERIAPSIS":"546.247","MEAN_ANOMALY":"278.0566","OBJECT_ID":"2020-070X","TLE_LINE2":"2 46553  53.0544  80.8062 0001379  82.0579 278.0566 15.06403792 60402","REV_AT_EPOCH":"6040","PERIOD":"95.592","EPOCH":"2021-11-01T11:49:41.147040","GP_ID":"188671791","APOAPSIS":"548.157","EPHEMERIS_TYPE":"0","ARG_OF_PERICENTER":"82.0579","DECAY_DATE":null,"MEAN_ELEMENT_THEORY":"SGP4","COUNTRY_CODE":"US","MEAN_MOTION_DDOT":"0.0000000000000","ELEMENT_SET_NO":"999","MEAN_MOTION_DOT":"0.00001145","ECCENTRICITY":"0.00013790","RCS_SIZE":"LARGE","BSTAR":"0.00009575200000"}];
